start=new Date('2022-11-23T00:00:00.000Z').valueOf();
sats=[{"NORAD_CAT_ID":"47805","RA_OF_ASC_NODE":"231.5035","OBJECT_TYPE":"PAYLOAD","GP_ID":"218502539","ELEMENT_SET_NO":"999","APOAPSIS":"548.228","REF_FRAME":"TEME","CLASSIFICATION_TYPE":"U","SITE":"AFETR","FILE":"3667517","OBJECT_ID":"2021-018U","TLE_LINE2":"2 47805  53.0550 231.5035 0001476  67.6276 292.4870 15.06402658 95581","EPHEMERIS_TYPE":"0","ARG_OF_PERICENTER":"67.6276","TIME_SYSTEM":"UTC","MEAN_ELEMENT_THEORY":"SGP4","ECCENTRICITY":"0.00014760","MEAN_MOTION_DOT":"0.00002464","MEAN_MOTION":"15.06402658","RCS_SIZE":"LARGE","EPOCH":"2022-11-22T21:03:33.496128","OBJECT_NAME":"STARLINK-2386","LAUNCH_DATE":"2021-03-11","TLE_LINE1":"1 47805U 21018U   22326.87747102  .00002464  00000-0  18426-3 0  9997","COUNTRY_CODE":"US","REV_AT_EPOCH":"9558","MEAN_MOTION_DDOT":"0.0000000000000","BSTAR":"0.00018426000000","INCLINATION":"53.0550","MEAN_ANOMALY":"292.4870","PERIOD":"95.592","CENTER_NAME":"EARTH","SEMIMAJOR_AXIS":"6925.340","PERIAPSIS":"546.183","DECAY_DATE":null},{"MEAN_MOTION":"15.06403533","RCS_SIZE":"LARGE","EPOCH":"2022-11-22T11:36:15.060960","OBJECT_NAME":"STARLINK-2387","LAUNCH_DATE":"2021-03-11","TLE_LINE1":"1 47806U 21018V   22326.48350765 -.00001569  00000-0 -86408-4 0  9993","COUNTRY_CODE":"US","PERIOD":"95.592","MEAN_ANOMALY":"310.9935","CENTER_NAME":"EARTH","INCLINATION":"53.0561","MEAN_MOTION_DDOT":"0.0000000000000","BSTAR":"-0.00008640800000","REV_AT_EPOCH":"9537","DECAY_DATE":null,"SEMIMAJOR_AXIS":"6925.338","PERIAPSIS":"545.807","RA_OF_ASC_NODE":"248.0386","NORAD_CAT_ID":"47806","APOAPSIS":"548.598","OBJECT_TYPE":"PAYLOAD","ELEMENT_SET_NO":"999","GP_ID":"218471666","CLASSIFICATION_TYPE":"U","SITE":"AFETR","FILE":"3667274","REF_FRAME":"TEME","EPHEMERIS_TYPE":"0","OBJECT_ID":"2021-018V","TLE_LINE2":"2 47806  53.0561 248.0386 0002015  49.1228 310.9935 15.06403533 95376","ARG_OF_PERICENTER":"49.1228","MEAN_ELEMENT_THEORY":"SGP4","ECCENTRICITY":"0.00020150","TIME_SYSTEM":"UTC","MEAN_MOTION_DOT":"-0.00001569"},{"RCS_SIZE":"LARGE","MEAN_MOTION":"15.06381854","EPOCH":"2022-11-22T20:54:14.508864","CENTER_NAME":"EARTH","MEAN_ANOMALY":"322.9683","PERIOD":"95.593","REV_AT_EPOCH":"9571","MEAN_MOTION_DDOT":"0.0000000000000","BSTAR":"0.00003845700000","INCLINATION":"53.0543","DECAY_DATE":null,"PERIAPSIS":"545.801","SEMIMAJOR_AXIS":"6925.404","TLE_LINE1":"1 47807U 21018W   22326.87100126  .00000291  00000-0  38457-4 0  9991","LAUNCH_DATE":"2021-03-11","OBJECT_NAME":"STARLINK-2388","COUNTRY_CODE":"US","FILE":"3667517","CLASSIFICATION_TYPE":"U","SITE":"AFETR","REF_FRAME":"TEME","RA_OF_ASC_NODE":"221.2941","NORAD_CAT_ID":"47807","APOAPSIS":"548.737","GP_ID":"218503042","ELEMENT_SET_NO":"999","OBJECT_TYPE":"PAYLOAD","ECCENTRICITY":"0.00021200","MEAN_ELEMENT_THEORY":"SGP4","TIME_SYSTEM":"UTC","MEAN_MOTION_DOT":"0.00000291","EPHEMERIS_TYPE":"0","TLE_LINE2":"2 47807  53.0543 221.2941 0002120  37.1452 322.9683 15.06381854 95712","OBJECT_ID":"2021-018W","ARG_OF_PERICENTER":"37.1452"},{"RCS_SIZE":"LARGE","MEAN_MOTION":"15.06390702","EPOCH":"2022-11-22T12:02:47.517504","OBJECT_NAME":"STARLINK-2389","LAUNCH_DATE":"2021-03-11","TLE_LINE1":"1 47808U 21018X   22326.50193886  .00001088  00000-0  91976-4 0  9997","COUNTRY_CODE":"US","MEAN_MOTION_DDOT":"0.0000000000000","BSTAR":"0.00009197600000","REV_AT_EPOCH":"9497","INCLINATION":"53.0545","MEAN_ANOMALY":"314.2631","PERIOD":"95.593","CENTER_NAME":"EARTH","SEMIMAJOR_AXIS":"6925.377","PERIAPSIS":"545.989","DECAY_DATE":null,"NORAD_CAT_ID":"47808","RA_OF_ASC_NODE":"247.9509","OBJECT_TYPE":"PAYLOAD","GP_ID":"218478033","ELEMENT_SET_NO":"999","APOAPSIS":"548.495","REF_FRAME":"TEME","CLASSIFICATION_TYPE":"U","SITE":"AFETR","FILE":"3667376","OBJECT_ID":"2021-018X","TLE_LINE2":"2 47808  53.0545 247.9509 0001809  45.8506 314.2631 15.06390702 94975","EPHEMERIS_TYPE":"0","ARG_OF_PERICENTER":"45.8506","TIME_SYSTEM":"UTC","ECCENTRICITY":"0.00018090","MEAN_ELEMENT_THEORY":"SGP4","MEAN_MOTION_DOT":"0.00001088"},{"TLE_LINE1":"1 47809U 21018Y   22326.83780000  .00001959  00000-0  15043-3 0  9991","OBJECT_NAME":"STARLINK-2390","LAUNCH_DATE":"2021-03-11","COUNTRY_CODE":"US","CENTER_NAME":"EARTH","MEAN_ANOMALY":"314.4957","PERIOD":"95.593","MEAN_MOTION_DDOT":"0.0000000000000","BSTAR":"0.00015043000000","REV_AT_EPOCH":"9535","INCLINATION":"53.0550","DECAY_DATE":null,"PERIAPSIS":"545.663","SEMIMAJOR_AXIS":"6925.369","RCS_SIZE":"LARGE","MEAN_MOTION":"15.06393321","EPOCH":"2022-11-22T20:06:25.920000","EPHEMERIS_TYPE":"0","TLE_LINE2":"2 47809  53.0550 251.4295 0002269  45.6218 314.4957 15.06393321 95359","OBJECT_ID":"2021-018Y","ARG_OF_PERICENTER":"45.6218","MEAN_ELEMENT_THEORY":"SGP4","ECCENTRICITY":"0.00022690","TIME_SYSTEM":"UTC","MEAN_MOTION_DOT":"0.00001959","RA_OF_ASC_NODE":"251.4295","NORAD_CAT_ID":"47809","APOAPSIS":"548.805","GP_ID":"218502040","ELEMENT_SET_NO":"999","OBJECT_TYPE":"PAYLOAD","FILE":"3667517","SITE":"AFETR","CLASSIFICATION_TYPE":"U","REF_FRAME":"TEME"},{"REF_FRAME":"TEME","FILE":"3667274","CLASSIFICATION_TYPE":"U","SITE":"AFETR","NORAD_CAT_ID":"47810","RA_OF_ASC_NODE":"264.2962","ELEMENT_SET_NO":"999","GP_ID":"218471167","OBJECT_TYPE":"PAYLOAD","APOAPSIS":"548.222","TIME_SYSTEM":"UTC","MEAN_ELEMENT_THEORY":"SGP4","ECCENTRICITY":"0.00014360","MEAN_MOTION_DOT":"0.00000612","TLE_LINE2":"2 47810  53.0548 264.2962 0001436  59.4949 300.6181 15.06395327 95118","OBJECT_ID":"2021-018Z","EPHEMERIS_TYPE":"0","ARG_OF_PERICENTER":"59.4949","RCS_SIZE":"LARGE","MEAN_MOTION":"15.06395327","EPOCH":"2022-11-22T04:48:13.271904","REV_AT_EPOCH":"9511","MEAN_MOTION_DDOT":"0.0000000000000","BSTAR":"0.00005995400000","INCLINATION":"53.0548","CENTER_NAME":"EARTH","MEAN_ANOMALY":"300.6181","PERIOD":"95.592","PERIAPSIS":"546.233","SEMIMAJOR_AXIS":"6925.363","DECAY_DATE":null,"TLE_LINE1":"1 47810U 21018Z   22326.20015361  .00000612  00000-0  59954-4 0  9990","OBJECT_NAME":"STARLINK-2391","LAUNCH_DATE":"2021-03-11","COUNTRY_CODE":"US"},{"TIME_SYSTEM":"UTC","ECCENTRICITY":"0.00014620","MEAN_ELEMENT_THEORY":"SGP4","MEAN_MOTION_DOT":"0.00001236","TLE_LINE2":"2 47811  53.0556 233.2328 0001462  70.0882 290.0264 15.06402349 95571","OBJECT_ID":"2021-018AA","EPHEMERIS_TYPE":"0","ARG_OF_PERICENTER":"70.0882","REF_FRAME":"TEME","FILE":"3667274","SITE":"AFETR","CLASSIFICATION_TYPE":"U","NORAD_CAT_ID":"47811","RA_OF_ASC_NODE":"233.2328","ELEMENT_SET_NO":"999","GP_ID":"218471903","OBJECT_TYPE":"PAYLOAD","APOAPSIS":"548.219","REV_AT_EPOCH":"9557","MEAN_MOTION_DDOT":"0.0000000000000","BSTAR":"0.00010184000000","INCLINATION":"53.0556","CENTER_NAME":"EARTH","PERIOD":"95.592","MEAN_ANOMALY":"290.0264","PERIAPSIS":"546.194","SEMIMAJOR_AXIS":"6925.341","DECAY_DATE":null,"TLE_LINE1":"1 47811U 21018AA  22326.43881072  .00001236  00000-0  10184-3 0  9990","LAUNCH_DATE":"2021-03-11","OBJECT_NAME":"STARLINK-2392","COUNTRY_CODE":"US","RCS_SIZE":"LARGE","MEAN_MOTION":"15.06402349","EPOCH":"2022-11-22T10:31:53.246208"},{"ELEMENT_SET_NO":"999","GP_ID":"218502290","OBJECT_TYPE":"PAYLOAD","APOAPSIS":"548.776","NORAD_CAT_ID":"47812","RA_OF_ASC_NODE":"261.2607","REF_FRAME":"TEME","FILE":"3667517","SITE":"AFETR","CLASSIFICATION_TYPE":"U","ARG_OF_PERICENTER":"43.2059","TLE_LINE2":"2 47812  53.0550 261.2607 0002232  43.2059 316.9105 15.06394414 95150","OBJECT_ID":"2021-018AB","EPHEMERIS_TYPE":"0","MEAN_MOTION_DOT":"0.00000710","TIME_SYSTEM":"UTC","MEAN_ELEMENT_THEORY":"SGP4","ECCENTRICITY":"0.00022320","EPOCH":"2022-11-22T20:59:32.449632","MEAN_MOTION":"15.06394414","RCS_SIZE":"LARGE","COUNTRY_CODE":"US","TLE_LINE1":"1 47812U 21018AB  22326.87468113  .00000710  00000-0  66600-4 0  9997","LAUNCH_DATE":"2021-03-11","OBJECT_NAME":"STARLINK-2393","PERIAPSIS":"545.685","SEMIMAJOR_AXIS":"6925.366","DECAY_DATE":null,"MEAN_MOTION_DDOT":"0.0000000000000","REV_AT_EPOCH":"9515","BSTAR":"0.00006660000000","INCLINATION":"53.0550","CENTER_NAME":"EARTH","PERIOD":"95.592","MEAN_ANOMALY":"316.9105"},{"TLE_LINE1":"1 47813U 21018AC  22326.46093028  .00001684  00000-0  13195-3 0  9993","LAUNCH_DATE":"2021-03-11","OBJECT_NAME":"STARLINK-2394","COUNTRY_CODE":"US","BSTAR":"0.00013195000000","MEAN_MOTION_DDOT":"0.0000000000000","REV_AT_EPOCH":"9557","INCLINATION":"53.0543","CENTER_NAME":"EARTH","PERIOD":"95.592","MEAN_ANOMALY":"291.8261","PERIAPSIS":"546.126","SEMIMAJOR_AXIS":"6925.349","DECAY_DATE":null,"RCS_SIZE":"LARGE","MEAN_MOTION":"15.06399778","EPOCH":"2022-11-22T11:03:44.376192","TLE_LINE2":"2 47813  53.0543 233.1370 0001571  68.2895 291.8261 15.06399778 95576","OBJECT_ID":"2021-018AC","EPHEMERIS_TYPE":"0","ARG_OF_PERICENTER":"68.2895","TIME_SYSTEM":"UTC","ECCENTRICITY":"0.00015710","MEAN_ELEMENT_THEORY":"SGP4","MEAN_MOTION_DOT":"0.00001684","NORAD_CAT_ID":"47813","RA_OF_ASC_NODE":"233.1370","GP_ID":"218470915","ELEMENT_SET_NO":"999","OBJECT_TYPE":"PAYLOAD","APOAPSIS":"548.302","REF_FRAME":"TEME","FILE":"3667274","SITE":"AFETR","CLASSIFICATION_TYPE":"U"},{"MEAN_MOTION_DDOT":"0.0000000000000","BSTAR":"0.00013626000000","INCLINATION":"53.0544","REV_AT_EPOCH":"9526","PERIOD":"95.592","MEAN_ANOMALY":"313.1022","CENTER_NAME":"EARTH","SEMIMAJOR_AXIS":"6925.346","PERIAPSIS":"545.844","DECAY_DATE":null,"LAUNCH_DATE":"2021-03-11","OBJECT_NAME":"STARLINK-2395","TLE_LINE1":"1 47814U 21018AD  22326.21950131  .00001749  00000-0  13626-3 0  9995","COUNTRY_CODE":"US","MEAN_MOTION":"15.06400698","RCS_SIZE":"LARGE","EPOCH":"2022-11-22T05:16:04.913184","TIME_SYSTEM":"UTC","ECCENTRICITY":"0.00019740","MEAN_ELEMENT_THEORY":"SGP4","MEAN_MOTION_DOT":"0.00001749","OBJECT_ID":"2021-018AD","TLE_LINE2":"2 47814  53.0544 254.2084 0001974  47.0132 313.1022 15.06400698 95263","EPHEMERIS_TYPE":"0","ARG_OF_PERICENTER":"47.0132","REF_FRAME":"TEME","SITE":"AFETR","CLASSIFICATION_TYPE":"U","FILE":"3667274","NORAD_CAT_ID":"47814","RA_OF_ASC_NODE":"254.2084","OBJECT_TYPE":"PAYLOAD","GP_ID":"218471667","ELEMENT_SET_NO":"999","APOAPSIS":"548.578"}];
